NORAD_CAT_ID,OBJECT_NAME,OBJECT_TYPE,EPOCH,MEAN_MOTION,ECCENTRICITY,INCLINATION,RA_OF_ASC_NODE,ARG_OF_PERICENTER,MEAN_ANOMALY,BSTAR,MEAN_MOTION_DOT,MEAN_MOTION_DDOT,TLE_LINE0,TLE_LINE1,TLE_LINE2,SEMIMAJOR_AXIS,PERIOD,APOGEE,PERIGEE,DECAYED
52267.0,STARLINK-3748,PAYLOAD,2022-07-20 14:00:01,15.08856352,0.0001817,53.2148,311.2154,42.1541,315.7455,-0.0016331,-0.00026197,0.0,0 STARLINK-3748,1 52267U 22041G   22201.58334491 -.00026197  00000-0 -16331-2 0  9998,2 52267  53.2148 311.2154 0001817  42.1541 315.7455 15.08856352  1305,6917.83,95.437,540.952,538.438,0.0
52267.0,STARLINK-3748,PAYLOAD,2022-07-20 22:00:01,15.08856636,0.0001783,53.2147,309.7184,39.9462,329.6098,-0.0050268,-0.00079445,0.0,0 STARLINK-3748,1 52267U 22041G   22201.91668981 -.00079445  00000-0 -50268-2 0  9990,2 52267  53.2147 309.7184 0001783  39.9462 329.6098 15.08856636 15135,6917.83,95.437,540.928,538.461,0.0
52267.0,STARLINK-3748,PAYLOAD,2022-07-21 08:00:01,15.08808652,0.0001698,53.2152,307.8469,47.6149,66.3411,0.00090923,0.0001419999999999,0.0,0 STARLINK-3748,1 52267U 22041G   22202.33334491  .00014200  00000-0  90923-3 0  9992,2 52267  53.2152 307.8469 0001698  47.6149  66.3411 15.08808652 15206,6917.976,95.44,541.016,538.6669999999998,0.0
52267.0,STARLINK-3748,PAYLOAD,2022-07-21 14:00:01,15.08812072,0.000186,53.215,306.7261,43.255,349.4322,-0.00022324,-3.837e-05,0.0,0 STARLINK-3748,1 52267U 22041G   22202.58335648 -.00003837  00000-0 -22324-3 0  9990,2 52267  53.2150 306.7261 0001860  43.2550 349.4322 15.08812072  1304,6917.965999999999,95.439,541.117,538.544,0.0
52267.0,STARLINK-3748,PAYLOAD,2022-07-21 22:00:00,15.08836314,0.0001814,53.2154,305.2290000000001,37.9322,6.2099,-0.00020463,-3.543e-05,0.0,0 STARLINK-3748,1 52267U 22041G   22202.91667824 -.00003543  00000-0 -20463-3 0  9997,2 52267  53.2154 305.2290 0001814  37.9322   6.2099 15.08836314  1304,6917.892,95.438,541.012,538.502,0.0
52267.0,STARLINK-3748,PAYLOAD,2022-07-22 06:00:00,15.08805669,0.0001515,53.2163,303.7314,46.688,9.0471,0.010954,0.00178325,0.0,0 STARLINK-3748,1 52267U 22041G   22203.25001157  .00178325  00000-0  10954-1 0  9997,2 52267  53.2163 303.7314 0001515  46.6880   9.0471 15.08805669  1302,6917.985,95.44,540.898,538.802,0.0
52267.0,STARLINK-3748,PAYLOAD,2022-07-22 12:00:00,15.08863232,0.0001799,53.215,302.6106,38.417,296.02,-0.00072945,-0.00011886,0.0,0 STARLINK-3748,1 52267U 22041G   22203.50001157 -.00011886  00000-0 -72945-3 0  9995,2 52267  53.2150 302.6106 0001799  38.4170 296.0200 15.08863232 15370,6917.809,95.436,540.919,538.43,0.0
52267.0,STARLINK-3748,PAYLOAD,2022-07-22 22:00:00,15.08881628,0.0001838,53.2148,300.7396,38.9202,40.0273,-0.0040933,-0.00064921,0.0,0 STARLINK-3748,1 52267U 22041G   22203.91667824 -.00064921  00000-0 -40933-2 0  9998,2 52267  53.2148 300.7396 0001838  38.9202  40.0273 15.08881628  1306,6917.753000000002,95.435,540.89,538.347,0.0
52267.0,STARLINK-3748,PAYLOAD,2022-07-23 14:00:01,15.08847075,0.0001925,53.2148,297.7475,41.7429,60.4898,0.00010656,1.408e-05,0.0,0 STARLINK-3748,1 52267U 22041G   22204.58335648  .00001408  00000-0  10656-3 0  9997,2 52267  53.2148 297.7475 0001925  41.7429  60.4898 15.08847075  1306,6917.859,95.437,541.055,538.3919999999998,0.0
52267.0,STARLINK-3748,PAYLOAD,2022-07-23 22:00:00,15.08880117,0.0001895,53.2145,296.2502,43.0397,70.7416,-0.004069,-0.00064538,0.0,0 STARLINK-3748,1 52267U 22041G   22204.91667824 -.00064538  00000-0 -40690-2 0  9993,2 52267  53.2145 296.2502 0001895  43.0397  70.7416 15.08880117  1307,6917.7580000000025,95.435,540.934,538.312,0.0
52267.0,STARLINK-3748,PAYLOAD,2022-07-24 14:00:01,15.08848374,0.0001973,53.2144,293.2584,43.4309,93.555,-0.0021768,-0.00034774,0.0,0 STARLINK-3748,1 52267U 22041G   22205.58334491 -.00034774  00000-0 -21768-2 0  9992,2 52267  53.2144 293.2584 0001973  43.4309  93.5550 15.08848374  1308,6917.855,95.437,541.085,538.355,0.0
52267.0,STARLINK-3748,PAYLOAD,2022-07-24 22:00:00,15.08834192,0.0001839,53.2141,291.7609,42.3111,106.266,-0.0016465999999999,-0.00026394,0.0,0 STARLINK-3748,1 52267U 22041G   22205.91667824 -.00026394  00000-0 -16466-2 0  9996,2 52267  53.2141 291.7609 0001839  42.3111 106.2660 15.08834192  1303,6917.898,95.438,541.035,538.491,0.0
52267.0,STARLINK-3748,PAYLOAD,2022-07-25 14:00:01,15.08818627,0.0001984,53.2142,288.7693,41.8082,129.929,0.0011478,0.00018016,0.0,0 STARLINK-3748,1 52267U 22041G   22206.58334491  .00018016  00000-0  11478-2 0  9999,2 52267  53.2142 288.7693 0001984  41.8082 129.9290 15.08818627 15845,6917.946,95.439,541.183,538.438,0.0
52267.0,STARLINK-3748,PAYLOAD,2022-07-25 22:00:00,15.08847147,0.0001885999999999,53.214,287.2717,42.472,140.841,-0.0016756,-0.00026862,0.0,0 STARLINK-3748,1 52267U 22041G   22206.91667824 -.00026862  00000-0 -16756-2 0  9999,2 52267  53.2140 287.2717 0001886  42.4720 140.8410 15.08847147  1302,6917.859,95.437,541.028,538.419,0.0
52267.0,STARLINK-3748,PAYLOAD,2022-07-26 14:00:01,15.0882744,0.0002077,53.2142,284.2802,41.5916,164.9127,0.0016541,0.00026126,0.0,0 STARLINK-3748,1 52267U 22041G   22207.58334491  .00026126  00000-0  16541-2 0  9997,2 52267  53.2142 284.2802 0002077  41.5916 164.9127 15.08827440 15992,6917.919,95.438,541.221,538.347,0.0
52267.0,STARLINK-3748,PAYLOAD,2022-07-26 22:00:00,15.08857633,0.0001959,53.2142,282.7825,42.5606,175.5339,-0.0015239,-0.00024471,0.0,0 STARLINK-3748,1 52267U 22041G   22207.91667824 -.00024471  00000-0 -15239-2 0  9999,2 52267  53.2142 282.7825 0001959  42.5606 175.5339 15.08857633  1305,6917.826,95.436,541.047,538.336,0.0
52267.0,STARLINK-3748,PAYLOAD,2022-07-27 14:00:01,15.08832018,0.0002110999999999,53.2143,279.791,39.9863,201.3363,0.00011426,1.53e-05,0.0,0 STARLINK-3748,1 52267U 22041G   22208.58334491  .00001530  00000-0  11426-3 0  9998,2 52267  53.2143 279.7910 0002111  39.9863 201.3363 15.08832018  1308,6917.905,95.438,541.23,538.309,0.0
52267.0,STARLINK-3748,PAYLOAD,2022-07-27 22:00:00,15.08842725,0.0001943,53.2143,278.2932,40.5652,212.3458,-0.0011576,-0.00018666,0.0,0 STARLINK-3748,1 52267U 22041G   22208.91667824 -.00018666  00000-0 -11576-2 0  9999,2 52267  53.2143 278.2932 0001943  40.5652 212.3458 15.08842725  1305,6917.871999999999,95.437,541.081,538.393,0.0
52267.0,STARLINK-3748,PAYLOAD,2022-07-28 14:00:01,15.0882336,0.0002133999999999,53.2143,275.3018,39.3335,236.7683,0.0022474,0.00035645,0.0,0 STARLINK-3748,1 52267U 22041G   22209.58334491  .00035645  00000-0  22474-2 0  9997,2 52267  53.2143 275.3018 0002134  39.3335 236.7683 15.08823360  1309,6917.931,95.439,541.273,538.32,0.0
52267.0,STARLINK-3748,PAYLOAD,2022-07-28 22:00:00,15.08855316,0.0001928,53.2143,273.8039,39.8103,247.8862,-0.0034165,-0.00054276,0.0,0 STARLINK-3748,1 52267U 22041G   22209.91667824 -.00054276  00000-0 -34165-2 0  9996,2 52267  53.2143 273.8039 0001928  39.8103 247.8862 15.08855316 16341,6917.834,95.437,541.0319999999998,538.365,0.0
52267.0,STARLINK-3748,PAYLOAD,2022-07-29 14:00:01,15.08805496,0.0002082,53.2141,270.8126,37.3891,273.4781,0.0024403,0.00038727,0.0,0 STARLINK-3748,1 52267U 22041G   22210.58334491  .00038727  00000-0  24403-2 0  9997,2 52267  53.2141 270.8126 0002082  37.3891 273.4781 15.08805496  1301,6917.986,95.44,541.2909999999998,538.411,0.0
52267.0,STARLINK-3748,PAYLOAD,2022-07-29 22:00:00,15.08827028,0.0001896999999999,53.2139,269.3147,39.8042,282.6359,-0.00029653,-5.003e-05,0.0,0 STARLINK-3748,1 52267U 22041G   22210.91667824 -.00005003  00000-0 -29653-3 0  9999,2 52267  53.2139 269.3147 0001897  39.8042 282.6359 15.08827028  1300,6917.92,95.438,541.097,538.4730000000002,0.0
52267.0,STARLINK-3748,PAYLOAD,2022-07-30 06:00:00,15.08843908,0.0001873,53.214,267.8184,42.1198,291.8911,-0.001198,-0.00019306,0.0,0 STARLINK-3748,1 52267U 22041G   22211.25001157 -.00019306  00000-0 -11980-2 0  9992,2 52267  53.2140 267.8184 0001873  42.1198 291.8911 15.08843908 16542,6917.868,95.437,541.029,538.438,0.0
52267.0,STARLINK-3748,PAYLOAD,2022-07-30 14:00:01,15.08810667,0.0002068,53.2136,266.3234,37.8488,307.759,0.0024364,0.0003867,0.0,0 STARLINK-3748,1 52267U 22041G   22211.58334491  .00038670  00000-0  24364-2 0  9991,2 52267  53.2136 266.3234 0002068  37.8488 307.7590 15.08810667  1301,6917.97,95.439,541.266,538.404,0.0
52267.0,STARLINK-3748,PAYLOAD,2022-07-30 22:00:00,15.08827072,0.0001885,53.2133,264.8253,41.1125,316.0776,0.00029521,4.412e-05,0.0,0 STARLINK-3748,1 52267U 22041G   22211.91667824  .00004412  00000-0  29521-3 0  9995,2 52267  53.2133 264.8253 0001885  41.1125 316.0776 15.08827072  1301,6917.92,95.438,541.089,538.481,0.0
52267.0,STARLINK-3748,PAYLOAD,2022-07-31 06:00:02,15.08851179,0.0001893,53.2141,263.3292,42.7981,326.0301,-0.0016453,-0.00026386,0.0,0 STARLINK-3748,1 52267U 22041G   22212.25002315 -.00026386  00000-0 -16453-2 0  9996,2 52267  53.2141 263.3292 0001893  42.7981 326.0301 15.08851179 16691,6917.846,95.437,541.021,538.4019999999998,0.0
52267.0,STARLINK-3748,PAYLOAD,2022-07-31 14:00:01,15.08814619,0.0002073,53.2143,261.834,38.62,341.7475,0.002477,0.00039327,0.0,0 STARLINK-3748,1 52267U 22041G   22212.58334491  .00039327  00000-0  24770-2 0  9993,2 52267  53.2143 261.8340 0002073  38.6200 341.7475 15.08814619  1305,6917.958000000001,95.439,541.257,538.389,0.0
52267.0,STARLINK-3748,PAYLOAD,2022-07-31 22:00:00,15.08826548,0.0001896,53.2147,260.3358,42.466,349.4904,0.00087008,0.00013581,0.0,0 STARLINK-3748,1 52267U 22041G   22212.91667824  .00013581  00000-0  87008-3 0  9997,2 52267  53.2147 260.3358 0001896  42.4660 349.4904 15.08826548 16804,6917.922,95.438,541.0980000000002,538.475,0.0
52267.0,STARLINK-3748,PAYLOAD,2022-08-01 14:00:01,15.08817491,0.0002112,53.2143,257.3447,39.3158,15.8201,0.0025555,0.00040593,0.0,0 STARLINK-3748,1 52267U 22041G   22213.58334491  .00040593  00000-0  25555-2 0  9993,2 52267  53.2143 257.3447 0002112  39.3158  15.8201 15.08817491  1304,6917.949000000001,95.439,541.275,538.3530000000002,0.0
